[
    {
        "Altitude(m)": 604234.6151581551,
        "Argument of Periapsis(deg)": 0.0,
        "Eccentricity": 0.0,
        "Inclination(deg)": 60.0,
        "Latitude(deg)": 14.117269571952376,
        "Longitude(deg)": 161.7273534659123,
        "Mean Anomaly(deg)": 163.6364,
        "RAAN(deg)": 90.0,
        "Satellite Name": "Test1 406",
        "Satellite Number": 406,
        "Semi-Major Axis(m)": 6980739.136638005,
        "Time(s)": 0
    },
    {
        "Altitude(m)": 604223.4434307065,
        "Argument of Periapsis(deg)": 0.00010418945913296404,
        "Eccentricity": 0.0,
        "Inclination(deg)": 60.0,
        "Latitude(deg)": 13.582405415598659,
        "Longitude(deg)": 162.01426165316414,
        "Mean Anomaly(deg)": 164.25650614546186,
        "RAAN(deg)": 89.99957995086027,
        "Satellite Name": "Test1 406",
        "Satellite Number": 406,
        "Semi-Major Axis(m)": 6980739.136638005,
        "Time(s)": 10
    }
]